{
  "type": "FeatureCollection",
  "features": [
    {
      "type": "Feature",
      "properties": {
        "norad_id": 34635,
        "name": "COSMOS 2251 DEB",
        "group": "cosmos-2251-debris",
        "lat": 66.49574241482735,
        "lon": -146.05391921379018,
        "alt_km": 643.7650497040868,
        "timestamp": "2025-12-10T11:33:53.778834+00:00",
        "meta_object_name": "COSMOS 2251 DEB",
        "meta_object_id": "1993-036XG",
        "meta_epoch": "2025-12-10T01:32:53.473056",
        "meta_mean_motion": 14.68204254,
        "meta_eccentricity": 0.0028788,
        "meta_inclination": 74.0454,
        "meta_ra_of_asc_node": 75.8846,
        "meta_arg_of_pericenter": 145.5604,
        "meta_mean_anomaly": 276.9994,
        "meta_ephemeris_type": 0,
        "meta_classification_type": "U",
        "meta_norad_cat_id": 34635,
        "meta_element_set_no": 999,
        "meta_rev_at_epoch": 73180,
        "meta_bstar": 0.0019643,
        "meta_mean_motion_dot": 0.00011369,
        "meta_mean_motion_ddot": 0,
        "tle_line1": "1 34635U 93036XG  25344.06450779  .00011369  00000+0  19643-2 0  9992",
        "tle_line2": "2 34635  74.0454  75.8846 0028788 145.5604 276.9994 14.68204254731804"
      },
      "geometry": {
        "type": "Point",
        "coordinates": [
          -146.05391921379018,
          66.49574241482735
        ]
      }
    },
    {
      "type": "Feature",
      "properties": {
        "norad_id": 34637,
        "name": "COSMOS 2251 DEB",
        "group": "cosmos-2251-debris",
        "lat": 3.66551832144788,
        "lon": 106.51277219782104,
        "alt_km": 730.224064546208,
        "timestamp": "2025-12-10T11:33:53.778844+00:00",
        "meta_object_name": "COSMOS 2251 DEB",
        "meta_object_id": "1993-036XJ",
        "meta_epoch": "2025-12-09T18:13:09.557760",
        "meta_mean_motion": 14.60049838,
        "meta_eccentricity": 0.0050065,
        "meta_inclination": 74.0498,
        "meta_ra_of_asc_node": 106.8405,
        "meta_arg_of_pericenter": 178.0438,
        "meta_mean_anomaly": 348.6861,
        "meta_ephemeris_type": 0,
        "meta_classification_type": "U",
        "meta_norad_cat_id": 34637,
        "meta_element_set_no": 999,
        "meta_rev_at_epoch": 88483,
        "meta_bstar": 0.0018,
        "meta_mean_motion_dot": 8.782e-05,
        "meta_mean_motion_ddot": 0,
        "tle_line1": "1 34637U 93036XJ  25343.75913840  .00008782  00000+0  18000-2 0  9993",
        "tle_line2": "2 34637  74.0498 106.8405 0050065 178.0438 348.6861 14.60049838884838"
      },
      "geometry": {
        "type": "Point",
        "coordinates": [
          106.51277219782104,
          3.66551832144788
        ]
      }
    },
    {
      "type": "Feature",
      "properties": {
        "norad_id": 34641,
        "name": "COSMOS 2251 DEB",
        "group": "cosmos-2251-debris",
        "lat": 56.767287232567824,
        "lon": 112.22234222997929,
        "alt_km": 706.8078641695474,
        "timestamp": "2025-12-10T11:33:53.778854+00:00",
        "meta_object_name": "COSMOS 2251 DEB",
        "meta_object_id": "1993-036XN",
        "meta_epoch": "2025-12-08T08:18:31.274784",
        "meta_mean_motion": 14.51947493,
        "meta_eccentricity": 0.00179207,
        "meta_inclination": 73.839,
        "meta_ra_of_asc_node": 90.0233,
        "meta_arg_of_pericenter": 6.2701,
        "meta_mean_anomaly": 55.3534,
        "meta_ephemeris_type": 0,
        "meta_classification_type": "U",
        "meta_norad_cat_id": 34641,
        "meta_element_set_no": 999,
        "meta_rev_at_epoch": 88192,
        "meta_bstar": 0.0014885346,
        "meta_mean_motion_dot": 5.995e-05,
        "meta_mean_motion_ddot": 0,
        "tle_line1": "1 34641U 93036XN  25342.34619531  .00005995  00000+0  14885-2 0  9992",
        "tle_line2": "2 34641  73.8390  90.0233 0017920   6.2701  55.3534 14.51947493881922"
      },
      "geometry": {
        "type": "Point",
        "coordinates": [
          112.22234222997929,
          56.767287232567824
        ]
      }
    },
    {
      "type": "Feature",
      "properties": {
        "norad_id": 34642,
        "name": "COSMOS 2251 DEB",
        "group": "cosmos-2251-debris",
        "lat": -35.59648013054505,
        "lon": 175.56082304553783,
        "alt_km": 810.5688777112819,
        "timestamp": "2025-12-10T11:33:53.778864+00:00",
        "meta_object_name": "COSMOS 2251 DEB",
        "meta_object_id": "1993-036XP",
        "meta_epoch": "2025-12-10T00:24:07.917120",
        "meta_mean_motion": 13.98961985,
        "meta_eccentricity": 0.0207443,
        "meta_inclination": 74.0052,
        "meta_ra_of_asc_node": 344.5178,
        "meta_arg_of_pericenter": 165.03,
        "meta_mean_anomaly": 228.7298,
        "meta_ephemeris_type": 0,
        "meta_classification_type": "U",
        "meta_norad_cat_id": 34642,
        "meta_element_set_no": 999,
        "meta_rev_at_epoch": 85255,
        "meta_bstar": 0.0011462,
        "meta_mean_motion_dot": 1.968e-05,
        "meta_mean_motion_ddot": 0,
        "tle_line1": "1 34642U 93036XP  25344.01675830  .00001968  00000+0  11462-2 0  9997",
        "tle_line2": "2 34642  74.0052 344.5178 0207443 165.0300 228.7298 13.98961985852558"
      },
      "geometry": {
        "type": "Point",
        "coordinates": [
          175.56082304553783,
          -35.59648013054505
        ]
      }
    },
    {
      "type": "Feature",
      "properties": {
        "norad_id": 34671,
        "name": "COSMOS 2251 DEB",
        "group": "cosmos-2251-debris",
        "lat": 41.2993164324808,
        "lon": 153.22886896223173,
        "alt_km": 675.6523113295052,
        "timestamp": "2025-12-10T11:33:53.778874+00:00",
        "meta_object_name": "COSMOS 2251 DEB",
        "meta_object_id": "1993-036XR",
        "meta_epoch": "2025-12-09T17:26:17.672352",
        "meta_mean_motion": 14.66843353,
        "meta_eccentricity": 0.0011692,
        "meta_inclination": 74.0267,
        "meta_ra_of_asc_node": 140.1121,
        "meta_arg_of_pericenter": 220.0956,
        "meta_mean_anomaly": 156.6146,
        "meta_ephemeris_type": 0,
        "meta_classification_type": "U",
        "meta_norad_cat_id": 34671,
        "meta_element_set_no": 999,
        "meta_rev_at_epoch": 88253,
        "meta_bstar": 0.0027981,
        "meta_mean_motion_dot": 0.00015648,
        "meta_mean_motion_ddot": 0,
        "tle_line1": "1 34671U 93036XR  25343.72659343  .00015648  00000+0  27981-2 0  9990",
        "tle_line2": "2 34671  74.0267 140.1121 0011692 220.0956 156.6146 14.66843353882530"
      },
      "geometry": {
        "type": "Point",
        "coordinates": [
          153.22886896223173,
          41.2993164324808
        ]
      }
    },
    {
      "type": "Feature",
      "properties": {
        "norad_id": 34672,
        "name": "COSMOS 2251 DEB",
        "group": "cosmos-2251-debris",
        "lat": 63.983167594159454,
        "lon": 93.82646634248098,
        "alt_km": 763.3481186568715,
        "timestamp": "2025-12-10T11:33:53.778884+00:00",
        "meta_object_name": "COSMOS 2251 DEB",
        "meta_object_id": "1993-036XS",
        "meta_epoch": "2025-12-08T07:33:35.281152",
        "meta_mean_motion": 14.36398163,
        "meta_eccentricity": 0.00235672,
        "meta_inclination": 74.0335,
        "meta_ra_of_asc_node": 313.7193,
        "meta_arg_of_pericenter": 26.7043,
        "meta_mean_anomaly": 43.2667,
        "meta_ephemeris_type": 0,
        "meta_classification_type": "U",
        "meta_norad_cat_id": 34672,
        "meta_element_set_no": 999,
        "meta_rev_at_epoch": 65114,
        "meta_bstar": 0.00050497184,
        "meta_mean_motion_dot": 1.458e-05,
        "meta_mean_motion_ddot": 0,
        "tle_line1": "1 34672U 93036XS  25342.31499168  .00001458  00000+0  50497-3 0  9995",
        "tle_line2": "2 34672  74.0335 313.7193 0023567  26.7043  43.2667 14.36398163651147"
      },
      "geometry": {
        "type": "Point",
        "coordinates": [
          93.82646634248098,
          63.983167594159454
        ]
      }
    },
    {
      "type": "Feature",
      "properties": {
        "norad_id": 34678,
        "name": "COSMOS 2251 DEB",
        "group": "cosmos-2251-debris",
        "lat": -14.836526177033143,
        "lon": 5.45022982991405,
        "alt_km": 791.280142733839,
        "timestamp": "2025-12-10T11:33:53.778894+00:00",
        "meta_object_name": "COSMOS 2251 DEB",
        "meta_object_id": "1993-036XY",
        "meta_epoch": "2025-12-10T01:42:15.429024",
        "meta_mean_motion": 14.30064327,
        "meta_eccentricity": 0.0024358,
        "meta_inclination": 74.0378,
        "meta_ra_of_asc_node": 10.545,
        "meta_arg_of_pericenter": 60.5337,
        "meta_mean_anomaly": 330.0436,
        "meta_ephemeris_type": 0,
        "meta_classification_type": "U",
        "meta_norad_cat_id": 34678,
        "meta_element_set_no": 999,
        "meta_rev_at_epoch": 87341,
        "meta_bstar": 4.2933e-05,
        "meta_mean_motion_dot": 8.6e-07,
        "meta_mean_motion_ddot": 0,
        "tle_line1": "1 34678U 93036XY  25344.07101191  .00000086  00000+0  42933-4 0  9995",
        "tle_line2": "2 34678  74.0378  10.5450 0024358  60.5337 330.0436 14.30064327873412"
      },
      "geometry": {
        "type": "Point",
        "coordinates": [
          5.45022982991405,
          -14.836526177033143
        ]
      }
    }
  ]
}